{"type": "FeatureCollection", "features": [ {"type": "Feature", "properties": {"norad_id": 35111, "name": "FENGYUN 1C DEB", "group": "fengyun-1c-debris", "lat": 26.973897923325083, "lon": 50.73937292070571, "alt_km": 867.017670102613, "timestamp": "2025-12-03T10:52:57.741551+00:00", "meta": {"OBJECT_NAME": "FENGYUN 1C DEB", "OBJECT_ID": "1999-025DKP", "EPOCH": "2025-12-03T00:32:29.394816", "MEAN_MOTION": 14.10941347, "ECCENTRICITY": 0.0021407, "INCLINATION": 99.4669, "RA_OF_ASC_NODE": 55.1571, "ARG_OF_PERICENTER": 247.7544, "MEAN_ANOMALY": 112.1355, "EPHEMERIS_TYPE": 0, "CLASSIFICATION_TYPE": "U", "NORAD_CAT_ID": 35111, "ELEMENT_SET_NO": 999, "REV_AT_EPOCH": 64007, "BSTAR": 0.00057891, "MEAN_MOTION_DOT": 9.92e-06, "MEAN_MOTION_DDOT": 0}, "tle": {"line1": "1 35111U 99025DKP 25337.02256244  .00000992  00000+0  57891-3 0  9993", "line2": "2 35111  99.4669  55.1571 0021407 247.7544 112.1355 14.10941347640076"}}, "geometry": {"type": "Point", "coordinates": [50.73937292070571, 26.973897923325083]}}, {"type": "Feature", "properties": {"norad_id": 35116, "name": "FENGYUN 1C DEB", "group": "fengyun-1c-debris", "lat": 16.89979700884625, "lon": -153.80278464385358, "alt_km": 806.2966982877415, "timestamp": "2025-12-03T10:52:57.741561+00:00", "meta": {"OBJECT_NAME": "FENGYUN 1C DEB", "OBJECT_ID": "1999-025DKU", "EPOCH": "2025-11-29T08:23:15.339840", "MEAN_MOTION": 14.24983182, "ECCENTRICITY": 0.00599996, "INCLINATION": 98.6639, "RA_OF_ASC_NODE": 19.4914, "ARG_OF_PERICENTER": 87.929, "MEAN_ANOMALY": 272.8759, "EPHEMERIS_TYPE": 0, "CLASSIFICATION_TYPE": "U", "NORAD_CAT_ID": 35116, "ELEMENT_SET_NO": 999, "REV_AT_EPOCH": 59769, "BSTAR": 0.0010519384, "MEAN_MOTION_DOT": 2.465e-05, "MEAN_MOTION_DDOT": 0}, "tle": {"line1": "1 35116U 99025DKU 25333.34948310  .00002465  00000+0  10519-2 0  9993", "line2": "2 35116  98.6639  19.4914 0059999  87.9290 272.8759 14.24983182597691"}}, "geometry": {"type": "Point", "coordinates": [-153.80278464385358, 16.89979700884625]}}, {"type": "Feature", "properties": {"norad_id": 35121, "name": "FENGYUN 1C DEB", "group": "fengyun-1c-debris", "lat": -58.9193127051239, "lon": -144.4950972401364, "alt_km": 998.9844596119165, "timestamp": "2025-12-03T10:52:57.741572+00:00", "meta": {"OBJECT_NAME": "FENGYUN 1C DEB", "OBJECT_ID": "1999-025DKZ", "EPOCH": "2025-11-23T20:23:41.984736", "MEAN_MOTION": 14.04733583, "ECCENTRICITY": 0.0157971, "INCLINATION": 98.3025, "RA_OF_ASC_NODE": 192.694, "ARG_OF_PERICENTER": 150.2058, "MEAN_ANOMALY": 210.8223, "EPHEMERIS_TYPE": 0, "CLASSIFICATION_TYPE": "U", "NORAD_CAT_ID": 35121, "ELEMENT_SET_NO": 999, "REV_AT_EPOCH": 60826, "BSTAR": 0.00039097454, "MEAN_MOTION_DOT": 6.63e-06, "MEAN_MOTION_DDOT": 0}, "tle": {"line1": "1 35121U 99025DKZ 25327.84979149  .00000663  00000+0  39097-3 0  9992", "line2": "2 35121  98.3025 192.6940 0157971 150.2058 210.8223 14.04733583608261"}}, "geometry": {"type": "Point", "coordinates": [-144.4950972401364, -58.9193127051239]}}, {"type": "Feature", "properties": {"norad_id": 35122, "name": "FENGYUN 1C DEB", "group": "fengyun-1c-debris", "lat": -81.18529369021944, "lon": 96.3155872565095, "alt_km": 850.9251436177583, "timestamp": "2025-12-03T10:52:57.741582+00:00", "meta": {"OBJECT_NAME": "FENGYUN 1C DEB", "OBJECT_ID": "1999-025DLA", "EPOCH": "2025-12-02T08:08:45.964032", "MEAN_MOTION": 14.14105652, "ECCENTRICITY": 0.00248418, "INCLINATION": 98.6728, "RA_OF_ASC_NODE": 355.0598, "ARG_OF_PERICENTER": 187.1016, "MEAN_ANOMALY": 172.9809, "EPHEMERIS_TYPE": 0, "CLASSIFICATION_TYPE": "U", "NORAD_CAT_ID": 35122, "ELEMENT_SET_NO": 999, "REV_AT_EPOCH": 63720, "BSTAR": 0.00038355211, "MEAN_MOTION_DOT": 6.9e-06, "MEAN_MOTION_DDOT": 0}, "tle": {"line1": "1 35122U 99025DLA 25336.33942088  .00000690  00000+0  38355-3 0  9995", "line2": "2 35122  98.6728 355.0598 0024841 187.1016 172.9809 14.14105652637206"}}, "geometry": {"type": "Point", "coordinates": [96.3155872565095, -81.18529369021944]}}, {"type": "Feature", "properties": {"norad_id": 35123, "name": "FENGYUN 1C DEB", "group": "fengyun-1c-debris", "lat": 80.0099891235095, "lon": 93.96179260099181, "alt_km": 769.5881270290811, "timestamp": "2025-12-03T10:52:57.741592+00:00", "meta": {"OBJECT_NAME": "FENGYUN 1C DEB", "OBJECT_ID": "1999-025DLB", "EPOCH": "2025-12-01T23:04:25.814496", "MEAN_MOTION": 14.24171122, "ECCENTRICITY": 0.00496834, "INCLINATION": 99.1234, "RA_OF_ASC_NODE": 158.2362, "ARG_OF_PERICENTER": 106.8047, "MEAN_ANOMALY": 253.8589, "EPHEMERIS_TYPE": 0, "CLASSIFICATION_TYPE": "U", "NORAD_CAT_ID": 35123, "ELEMENT_SET_NO": 999, "REV_AT_EPOCH": 60920, "BSTAR": 0.00063028249, "MEAN_MOTION_DOT": 1.423e-05, "MEAN_MOTION_DDOT": 0}, "tle": {"line1": "1 35123U 99025DLB 25335.96140989  .00001423  00000+0  63028-3 0  9994", "line2": "2 35123  99.1234 158.2362 0049683 106.8047 253.8589 14.24171122609209"}}, "geometry": {"type": "Point", "coordinates": [93.96179260099181, 80.0099891235095]}}, {"type": "Feature", "properties": {"norad_id": 35125, "name": "FENGYUN 1C DEB", "group": "fengyun-1c-debris", "lat": -52.35539295221667, "lon": 158.1777714426094, "alt_km": 788.1543741027144, "timestamp": "2025-12-03T10:52:57.741603+00:00", "meta": {"OBJECT_NAME": "FENGYUN 1C DEB", "OBJECT_ID": "1999-025DLD", "EPOCH": "2025-12-02T18:42:43.848288", "MEAN_MOTION": 14.33013492, "ECCENTRICITY": 0.0052377, "INCLINATION": 98.2163, "RA_OF_ASC_NODE": 348.3348, "ARG_OF_PERICENTER": 324.6836, "MEAN_ANOMALY": 35.0884, "EPHEMERIS_TYPE": 0, "CLASSIFICATION_TYPE": "U", "NORAD_CAT_ID": 35125, "ELEMENT_SET_NO": 999, "REV_AT_EPOCH": 31139, "BSTAR": 0.0017996, "MEAN_MOTION_DOT": 4.964e-05, "MEAN_MOTION_DDOT": 0}, "tle": {"line1": "1 35125U 99025DLD 25336.77967417  .00004964  00000+0  17996-2 0  9994", "line2": "2 35125  98.2163 348.3348 0052377 324.6836  35.0884 14.33013492311391"}}, "geometry": {"type": "Point", "coordinates": [158.1777714426094, -52.35539295221667]}}, {"type": "Feature", "properties": {"norad_id": 35130, "name": "FENGYUN 1C DEB", "group": "fengyun-1c-debris", "lat": -9.835607368067155, "lon": -1.011615607851412, "alt_km": 570.5867903390817, "timestamp": "2025-12-03T10:52:57.741613+00:00", "meta": {"OBJECT_NAME": "FENGYUN 1C DEB", "OBJECT_ID": "1999-025DLJ", "EPOCH": "2025-11-16T07:10:32.424096", "MEAN_MOTION": 14.93874873, "ECCENTRICITY": 0.00078551, "INCLINATION": 99.035, "RA_OF_ASC_NODE": 160.7946, "ARG_OF_PERICENTER": 199.1372, "MEAN_ANOMALY": 160.955, "EPHEMERIS_TYPE": 0, "CLASSIFICATION_TYPE": "U", "NORAD_CAT_ID": 35130, "ELEMENT_SET_NO": 999, "REV_AT_EPOCH": 64518, "BSTAR": 0.012697589, "MEAN_MOTION_DOT": 0.00137587, "MEAN_MOTION_DDOT": 0}, "tle": {"line1": "1 35130U 99025DLJ 25320.29898639  .00137587  00000+0  12698-1 0  9990", "line2": "2 35130  99.0350 160.7946 0007855 199.1372 160.9550 14.93874873645184"}}, "geometry": {"type": "Point", "coordinates": [-1.011615607851412, -9.835607368067155]}}, {"type": "Feature", "properties": {"norad_id": 35135, "name": "FENGYUN 1C DEB", "group": "fengyun-1c-debris", "lat": -53.35130267814169, "lon": -1.7939225803586354, "alt_km": 765.6660565367483, "timestamp": "2025-12-03T10:52:57.741623+00:00", "meta": {"OBJECT_NAME": "FENGYUN 1C DEB", "OBJECT_ID": "1999-025DLP", "EPOCH": "2025-12-01T06:48:06.645600", "MEAN_MOTION": 14.22496279, "ECCENTRICITY": 0.0081298, "INCLINATION": 98.5651, "RA_OF_ASC_NODE": 344.4097, "ARG_OF_PERICENTER": 318.0472, "MEAN_ANOMALY": 41.4496, "EPHEMERIS_TYPE": 0, "CLASSIFICATION_TYPE": "U", "NORAD_CAT_ID": 35135, "ELEMENT_SET_NO": 999, "REV_AT_EPOCH": 87661, "BSTAR": 0.00057484, "MEAN_MOTION_DOT": 1.283e-05, "MEAN_MOTION_DDOT": 0}, "tle": {"line1": "1 35135U 99025DLP 25335.28341025  .00001283  00000+0  57484-3 0  9999", "line2": "2 35135  98.5651 344.4097 0081298 318.0472  41.4496 14.22496279876619"}}, "geometry": {"type": "Point", "coordinates": [-1.7939225803586354, -53.35130267814169]}}, {"type": "Feature", "properties": {"norad_id": 35139, "name": "FENGYUN 1C DEB", "group": "fengyun-1c-debris", "lat": 81.15701841393158, "lon": -93.2067652160214, "alt_km": 840.953542915523, "timestamp": "2025-12-03T10:52:57.741634+00:00", "meta": {"OBJECT_NAME": "FENGYUN 1C DEB", "OBJECT_ID": "1999-025DLT", "EPOCH": "2025-11-29T06:46:18.583392", "MEAN_MOTION": 14.21054019, "ECCENTRICITY": 0.00685814, "INCLINATION": 98.5841, "RA_OF_ASC_NODE": 338.8823, "ARG_OF_PERICENTER": 336.9878, "MEAN_ANOMALY": 22.8231, "EPHEMERIS_TYPE": 0, "CLASSIFICATION_TYPE": "U", "NORAD_CAT_ID": 35139, "ELEMENT_SET_NO": 999, "REV_AT_EPOCH": 63962, "BSTAR": 0.00042081079, "MEAN_MOTION_DOT": 8.92e-06, "MEAN_MOTION_DDOT": 0}, "tle": {"line1": "1 35139U 99025DLT 25333.28215953  .00000892  00000+0  42081-3 0  9993", "line2": "2 35139  98.5841 338.8823 0068581 336.9878  22.8231 14.21054019639626"}}, "geometry": {"type": "Point", "coordinates": [-93.2067652160214, 81.15701841393158]}}, {"type": "Feature", "properties": {"norad_id": 35140, "name": "FENGYUN 1C DEB", "group": "fengyun-1c-debris", "lat": 12.867105237087493, "lon": 141.16376104300753, "alt_km": 1030.2199380820994, "timestamp": "2025-12-03T10:52:57.741644+00:00", "meta": {"OBJECT_NAME": "FENGYUN 1C DEB", "OBJECT_ID": "1999-025DLU", "EPOCH": "2025-12-02T05:22:44.978016", "MEAN_MOTION": 14.21316954, "ECCENTRICITY": 0.0291407, "INCLINATION": 98.446, "RA_OF_ASC_NODE": 318.0409, "ARG_OF_PERICENTER": 357.3443, "MEAN_ANOMALY": 2.6174, "EPHEMERIS_TYPE": 0, "CLASSIFICATION_TYPE": "U", "NORAD_CAT_ID": 35140, "ELEMENT_SET_NO": 999, "REV_AT_EPOCH": 87129, "BSTAR": 0.00035193, "MEAN_MOTION_DOT": 1.131e-05, "MEAN_MOTION_DDOT": 0}, "tle": {"line1": "1 35140U 99025DLU 25336.22413169  .00001131  00000+0  35193-3 0  9994", "line2": "2 35140  98.4460 318.0409 0291407 357.3443   2.6174 14.21316954871296"}}, "geometry": {"type": "Point", "coordinates": [141.16376104300753, 12.867105237087493]}}]}